{
  "type": "FeatureCollection",
  "name": "Inspeção: Voo Termográfico Drone DJI Matrice 4T - Faixa A - Complexo Solar São Francisco 10MW",
  "crs": {
    "type": "name",
    "properties": {
      "name": "urn:ogc:def:crs:OGC:1.3:CRS84"
    }
  },
  "metadata": {
    "generator": "SolarGuard Vision - Solar Thermal Vision & AI",
    "spec": "RFC 7946",
    "generated_at": "2026-09-10T16:27:02.593194",
    "total_features": 2,
    "severity_summary": {
      "critical": 1,
      "medium": 1,
      "low": 0,
      "informational": 0
    }
  },
  "features": [
    {
      "type": "Feature",
      "id": "02d39a4b-a2f1-44fb-91ff-26f825bbc304",
      "geometry": {
        "type": "Point",
        "coordinates": [
          -40.498714726348965,
          -9.412338518606555,
          357.0
        ]
      },
      "properties": {
        "anomaly_id": "02d39a4b-a2f1-44fb-91ff-26f825bbc304",
        "image_id": "52b3fd8a-787b-4b4e-86b2-e0fec33efbec",
        "anomaly_type": "Hotspot",
        "anomaly_type_code": "hotspot",
        "severity": "Crítico (Classe 3 - IEC)",
        "severity_code": "critical",
        "severity_color_hex": "#E74C3C",
        "max_temp_celsius": 78.5,
        "delta_t_celsius": 38.5,
        "min_temp_celsius": null,
        "avg_temp_celsius": null,
        "confidence": 0.96,
        "project_id": "14a86426-986d-4ed7-a28c-57910b16faa9",
        "project_name": "Complexo Solar São Francisco 10MW",
        "inspection_id": "b235b039-e346-4b5d-ad4e-4f06901cd607",
        "inspection_title": "Voo Termográfico Drone DJI Matrice 4T - Faixa A",
        "captured_at": "2026-07-10T10:15:00",
        "crop_path": null,
        "notes": "Ponto quente severo em célula central da string 4"
      }
    },
    {
      "type": "Feature",
      "id": "89b9ac0b-ee86-478f-848d-d127788fae50",
      "geometry": {
        "type": "Point",
        "coordinates": [
          -40.498765,
          -9.412345,
          357.0
        ]
      },
      "properties": {
        "anomaly_id": "89b9ac0b-ee86-478f-848d-d127788fae50",
        "image_id": "52b3fd8a-787b-4b4e-86b2-e0fec33efbec",
        "anomaly_type": "Módulo Desconectado",
        "anomaly_type_code": "disconnected_module",
        "severity": "Médio (Classe 2 - IEC)",
        "severity_code": "medium",
        "severity_color_hex": "#E67E22",
        "max_temp_celsius": 52.0,
        "delta_t_celsius": 12.0,
        "min_temp_celsius": null,
        "avg_temp_celsius": null,
        "confidence": 0.92,
        "project_id": "14a86426-986d-4ed7-a28c-57910b16faa9",
        "project_name": "Complexo Solar São Francisco 10MW",
        "inspection_id": "b235b039-e346-4b5d-ad4e-4f06901cd607",
        "inspection_title": "Voo Termográfico Drone DJI Matrice 4T - Faixa A",
        "captured_at": "2026-07-10T10:15:00",
        "crop_path": null,
        "notes": "Módulo inteiro com aquecimento uniforme"
      }
    }
  ]
}