{
  "type": "FeatureCollection",
  "name": "Inspeção: Inspeção Automatizada Completa - E2E - Complexo Solar São Francisco",
  "crs": {
    "type": "name",
    "properties": {
      "name": "urn:ogc:def:crs:OGC:1.3:CRS84"
    }
  },
  "metadata": {
    "generator": "SolarGuard Vision - Solar Thermal Vision & AI",
    "spec": "RFC 7946",
    "generated_at": "2026-09-10T18:33:14.044856",
    "total_features": 3,
    "severity_summary": {
      "critical": 0,
      "medium": 3,
      "low": 0,
      "informational": 0
    }
  },
  "features": [
    {
      "type": "Feature",
      "id": "71b083df-ab70-4ef2-a3d1-10627c4a4f99",
      "geometry": {
        "type": "Point",
        "coordinates": [
          -40.502718393561274,
          -9.389078757170916,
          0.0
        ]
      },
      "properties": {
        "anomaly_id": "71b083df-ab70-4ef2-a3d1-10627c4a4f99",
        "image_id": "983a11a8-26a4-4b33-b444-91e9152124fe",
        "anomaly_type": "Hotspot",
        "anomaly_type_code": "hotspot",
        "severity": "Médio (Classe 2 - IEC)",
        "severity_code": "medium",
        "severity_color_hex": "#E67E22",
        "max_temp_celsius": 61.0,
        "delta_t_celsius": 20.0,
        "min_temp_celsius": 26.0,
        "avg_temp_celsius": 41.0,
        "confidence": 0.92,
        "project_id": "e9022417-08e3-4f3a-b76f-df5bfbdb2a5a",
        "project_name": "Complexo Solar São Francisco",
        "inspection_id": "18ea81d9-7dff-4d9f-a1c3-0d35e683387c",
        "inspection_title": "Inspeção Automatizada Completa - E2E",
        "captured_at": null,
        "crop_path": null,
        "notes": null
      }
    },
    {
      "type": "Feature",
      "id": "9227db0a-380e-456e-96f1-a111499633f0",
      "geometry": {
        "type": "Point",
        "coordinates": [
          -40.502718393561274,
          -9.389078757170916,
          0.0
        ]
      },
      "properties": {
        "anomaly_id": "9227db0a-380e-456e-96f1-a111499633f0",
        "image_id": "9194c459-7410-44df-b42e-ba209321991d",
        "anomaly_type": "Hotspot",
        "anomaly_type_code": "hotspot",
        "severity": "Médio (Classe 2 - IEC)",
        "severity_code": "medium",
        "severity_color_hex": "#E67E22",
        "max_temp_celsius": 61.0,
        "delta_t_celsius": 20.0,
        "min_temp_celsius": 26.0,
        "avg_temp_celsius": 41.0,
        "confidence": 0.92,
        "project_id": "e9022417-08e3-4f3a-b76f-df5bfbdb2a5a",
        "project_name": "Complexo Solar São Francisco",
        "inspection_id": "18ea81d9-7dff-4d9f-a1c3-0d35e683387c",
        "inspection_title": "Inspeção Automatizada Completa - E2E",
        "captured_at": null,
        "crop_path": null,
        "notes": null
      }
    },
    {
      "type": "Feature",
      "id": "7424f715-8d49-4d7a-a50a-e834a0d445d2",
      "geometry": {
        "type": "Point",
        "coordinates": [
          -40.502718393561274,
          -9.389078757170916,
          0.0
        ]
      },
      "properties": {
        "anomaly_id": "7424f715-8d49-4d7a-a50a-e834a0d445d2",
        "image_id": "07224bfd-782e-4086-99df-1f9ca38deff7",
        "anomaly_type": "Hotspot",
        "anomaly_type_code": "hotspot",
        "severity": "Médio (Classe 2 - IEC)",
        "severity_code": "medium",
        "severity_color_hex": "#E67E22",
        "max_temp_celsius": 61.0,
        "delta_t_celsius": 20.0,
        "min_temp_celsius": 26.0,
        "avg_temp_celsius": 41.0,
        "confidence": 0.92,
        "project_id": "e9022417-08e3-4f3a-b76f-df5bfbdb2a5a",
        "project_name": "Complexo Solar São Francisco",
        "inspection_id": "18ea81d9-7dff-4d9f-a1c3-0d35e683387c",
        "inspection_title": "Inspeção Automatizada Completa - E2E",
        "captured_at": null,
        "crop_path": null,
        "notes": null
      }
    }
  ]
}