{
  "type": "FeatureCollection",
  "name": "Inspeção: Voo Termográfico Drone DJI Matrice 4T - Faixa A - Complexo Solar São Francisco 10MW",
  "crs": {
    "type": "name",
    "properties": {
      "name": "urn:ogc:def:crs:OGC:1.3:CRS84"
    }
  },
  "metadata": {
    "generator": "ThermoPV AI - Solar Thermal Vision & AI",
    "spec": "RFC 7946",
    "generated_at": "2026-09-10T15:28:24.723377",
    "total_features": 2,
    "severity_summary": {
      "critical": 1,
      "medium": 1,
      "low": 0,
      "informational": 0
    }
  },
  "features": [
    {
      "type": "Feature",
      "id": "8ab40277-c5f0-4248-9b64-3531a259d1c2",
      "geometry": {
        "type": "Point",
        "coordinates": [
          -40.498714726348965,
          -9.412338518606555,
          357.0
        ]
      },
      "properties": {
        "anomaly_id": "8ab40277-c5f0-4248-9b64-3531a259d1c2",
        "image_id": "ae058eea-7ac1-4166-b493-0b862e2a8e0d",
        "anomaly_type": "Hotspot",
        "anomaly_type_code": "hotspot",
        "severity": "Crítico (Classe 3 - IEC)",
        "severity_code": "critical",
        "severity_color_hex": "#E74C3C",
        "max_temp_celsius": 78.5,
        "delta_t_celsius": 38.5,
        "min_temp_celsius": null,
        "avg_temp_celsius": null,
        "confidence": 0.96,
        "project_id": "cac60b59-4a04-4469-8031-454a4215571d",
        "project_name": "Complexo Solar São Francisco 10MW",
        "inspection_id": "f4f19619-6f28-480c-87d8-b1f478b4693b",
        "inspection_title": "Voo Termográfico Drone DJI Matrice 4T - Faixa A",
        "captured_at": "2026-07-10T10:15:00",
        "crop_path": null,
        "notes": "Ponto quente severo em célula central da string 4"
      }
    },
    {
      "type": "Feature",
      "id": "d62ddf50-cf00-4d60-bc2e-e1b70a0b4617",
      "geometry": {
        "type": "Point",
        "coordinates": [
          -40.498765,
          -9.412345,
          357.0
        ]
      },
      "properties": {
        "anomaly_id": "d62ddf50-cf00-4d60-bc2e-e1b70a0b4617",
        "image_id": "ae058eea-7ac1-4166-b493-0b862e2a8e0d",
        "anomaly_type": "Módulo Desconectado",
        "anomaly_type_code": "disconnected_module",
        "severity": "Médio (Classe 2 - IEC)",
        "severity_code": "medium",
        "severity_color_hex": "#E67E22",
        "max_temp_celsius": 52.0,
        "delta_t_celsius": 12.0,
        "min_temp_celsius": null,
        "avg_temp_celsius": null,
        "confidence": 0.92,
        "project_id": "cac60b59-4a04-4469-8031-454a4215571d",
        "project_name": "Complexo Solar São Francisco 10MW",
        "inspection_id": "f4f19619-6f28-480c-87d8-b1f478b4693b",
        "inspection_title": "Voo Termográfico Drone DJI Matrice 4T - Faixa A",
        "captured_at": "2026-07-10T10:15:00",
        "crop_path": null,
        "notes": "Módulo inteiro com aquecimento uniforme"
      }
    }
  ]
}