{
  "type": "FeatureCollection",
  "name": "Inspeção: Inspeção Automatizada Completa - E2E - Complexo Solar São Francisco",
  "crs": {
    "type": "name",
    "properties": {
      "name": "urn:ogc:def:crs:OGC:1.3:CRS84"
    }
  },
  "metadata": {
    "generator": "SolarGuard Vision - Solar Thermal Vision & AI",
    "spec": "RFC 7946",
    "generated_at": "2026-09-10T17:35:24.372773",
    "total_features": 3,
    "severity_summary": {
      "critical": 0,
      "medium": 3,
      "low": 0,
      "informational": 0
    }
  },
  "features": [
    {
      "type": "Feature",
      "id": "8a4b8449-491e-48f4-b253-caad33a78cf4",
      "geometry": {
        "type": "Point",
        "coordinates": [
          -40.502718393561274,
          -9.389078757170916,
          0.0
        ]
      },
      "properties": {
        "anomaly_id": "8a4b8449-491e-48f4-b253-caad33a78cf4",
        "image_id": "3ce7defd-fc50-4370-9eca-6625cfff288a",
        "anomaly_type": "Hotspot",
        "anomaly_type_code": "hotspot",
        "severity": "Médio (Classe 2 - IEC)",
        "severity_code": "medium",
        "severity_color_hex": "#E67E22",
        "max_temp_celsius": 61.0,
        "delta_t_celsius": 20.0,
        "min_temp_celsius": 26.0,
        "avg_temp_celsius": 41.0,
        "confidence": 0.92,
        "project_id": "931afeb5-d2d3-49c6-9d7b-da1ee36450cc",
        "project_name": "Complexo Solar São Francisco",
        "inspection_id": "c4b4ef7f-36c3-4333-a8b7-e271835f740f",
        "inspection_title": "Inspeção Automatizada Completa - E2E",
        "captured_at": null,
        "crop_path": null,
        "notes": null
      }
    },
    {
      "type": "Feature",
      "id": "76b61413-d1ad-4dbe-a294-a8df8588bf26",
      "geometry": {
        "type": "Point",
        "coordinates": [
          -40.502718393561274,
          -9.389078757170916,
          0.0
        ]
      },
      "properties": {
        "anomaly_id": "76b61413-d1ad-4dbe-a294-a8df8588bf26",
        "image_id": "9804fecc-b519-4e77-b49d-536a8fb3c6c3",
        "anomaly_type": "Hotspot",
        "anomaly_type_code": "hotspot",
        "severity": "Médio (Classe 2 - IEC)",
        "severity_code": "medium",
        "severity_color_hex": "#E67E22",
        "max_temp_celsius": 61.0,
        "delta_t_celsius": 20.0,
        "min_temp_celsius": 26.0,
        "avg_temp_celsius": 41.0,
        "confidence": 0.92,
        "project_id": "931afeb5-d2d3-49c6-9d7b-da1ee36450cc",
        "project_name": "Complexo Solar São Francisco",
        "inspection_id": "c4b4ef7f-36c3-4333-a8b7-e271835f740f",
        "inspection_title": "Inspeção Automatizada Completa - E2E",
        "captured_at": null,
        "crop_path": null,
        "notes": null
      }
    },
    {
      "type": "Feature",
      "id": "1092e390-858e-4f79-826b-956ef4bdb125",
      "geometry": {
        "type": "Point",
        "coordinates": [
          -40.502718393561274,
          -9.389078757170916,
          0.0
        ]
      },
      "properties": {
        "anomaly_id": "1092e390-858e-4f79-826b-956ef4bdb125",
        "image_id": "e690dc16-b819-4cda-8ebf-d79e6f599df8",
        "anomaly_type": "Hotspot",
        "anomaly_type_code": "hotspot",
        "severity": "Médio (Classe 2 - IEC)",
        "severity_code": "medium",
        "severity_color_hex": "#E67E22",
        "max_temp_celsius": 61.0,
        "delta_t_celsius": 20.0,
        "min_temp_celsius": 26.0,
        "avg_temp_celsius": 41.0,
        "confidence": 0.92,
        "project_id": "931afeb5-d2d3-49c6-9d7b-da1ee36450cc",
        "project_name": "Complexo Solar São Francisco",
        "inspection_id": "c4b4ef7f-36c3-4333-a8b7-e271835f740f",
        "inspection_title": "Inspeção Automatizada Completa - E2E",
        "captured_at": null,
        "crop_path": null,
        "notes": null
      }
    }
  ]
}