{
  "type": "FeatureCollection",
  "name": "Inspeção: Voo Termográfico Drone DJI Matrice 4T - Faixa A - Complexo Solar São Francisco 10MW",
  "crs": {
    "type": "name",
    "properties": {
      "name": "urn:ogc:def:crs:OGC:1.3:CRS84"
    }
  },
  "metadata": {
    "generator": "SolarGuard Vision - Solar Thermal Vision & AI",
    "spec": "RFC 7946",
    "generated_at": "2026-09-10T16:14:41.770920",
    "total_features": 2,
    "severity_summary": {
      "critical": 1,
      "medium": 1,
      "low": 0,
      "informational": 0
    }
  },
  "features": [
    {
      "type": "Feature",
      "id": "447a88f6-488c-4a16-9b07-3f9e0a5e21f7",
      "geometry": {
        "type": "Point",
        "coordinates": [
          -40.498714726348965,
          -9.412338518606555,
          357.0
        ]
      },
      "properties": {
        "anomaly_id": "447a88f6-488c-4a16-9b07-3f9e0a5e21f7",
        "image_id": "c58640c0-9ec3-4fad-828a-e5f8d2bcb152",
        "anomaly_type": "Hotspot",
        "anomaly_type_code": "hotspot",
        "severity": "Crítico (Classe 3 - IEC)",
        "severity_code": "critical",
        "severity_color_hex": "#E74C3C",
        "max_temp_celsius": 78.5,
        "delta_t_celsius": 38.5,
        "min_temp_celsius": null,
        "avg_temp_celsius": null,
        "confidence": 0.96,
        "project_id": "100a5c73-c12d-4106-b26d-5fa309c3aeab",
        "project_name": "Complexo Solar São Francisco 10MW",
        "inspection_id": "d8675df0-7e87-42ce-80d3-5f934846be25",
        "inspection_title": "Voo Termográfico Drone DJI Matrice 4T - Faixa A",
        "captured_at": "2026-07-10T10:15:00",
        "crop_path": null,
        "notes": "Ponto quente severo em célula central da string 4"
      }
    },
    {
      "type": "Feature",
      "id": "0159d792-c82e-4fa3-bec7-9b32964195fb",
      "geometry": {
        "type": "Point",
        "coordinates": [
          -40.498765,
          -9.412345,
          357.0
        ]
      },
      "properties": {
        "anomaly_id": "0159d792-c82e-4fa3-bec7-9b32964195fb",
        "image_id": "c58640c0-9ec3-4fad-828a-e5f8d2bcb152",
        "anomaly_type": "Módulo Desconectado",
        "anomaly_type_code": "disconnected_module",
        "severity": "Médio (Classe 2 - IEC)",
        "severity_code": "medium",
        "severity_color_hex": "#E67E22",
        "max_temp_celsius": 52.0,
        "delta_t_celsius": 12.0,
        "min_temp_celsius": null,
        "avg_temp_celsius": null,
        "confidence": 0.92,
        "project_id": "100a5c73-c12d-4106-b26d-5fa309c3aeab",
        "project_name": "Complexo Solar São Francisco 10MW",
        "inspection_id": "d8675df0-7e87-42ce-80d3-5f934846be25",
        "inspection_title": "Voo Termográfico Drone DJI Matrice 4T - Faixa A",
        "captured_at": "2026-07-10T10:15:00",
        "crop_path": null,
        "notes": "Módulo inteiro com aquecimento uniforme"
      }
    }
  ]
}