{
  "type": "FeatureCollection",
  "name": "Inspeção: Voo Termográfico Drone DJI Matrice 4T - Faixa A - Complexo Solar São Francisco 10MW",
  "crs": {
    "type": "name",
    "properties": {
      "name": "urn:ogc:def:crs:OGC:1.3:CRS84"
    }
  },
  "metadata": {
    "generator": "SolarGuard Vision - Solar Thermal Vision & AI",
    "spec": "RFC 7946",
    "generated_at": "2026-09-10T17:07:22.972748",
    "total_features": 2,
    "severity_summary": {
      "critical": 1,
      "medium": 1,
      "low": 0,
      "informational": 0
    }
  },
  "features": [
    {
      "type": "Feature",
      "id": "98549aba-b8f2-4b7f-8cd5-3c5dba454725",
      "geometry": {
        "type": "Point",
        "coordinates": [
          -40.498714726348965,
          -9.412338518606555,
          357.0
        ]
      },
      "properties": {
        "anomaly_id": "98549aba-b8f2-4b7f-8cd5-3c5dba454725",
        "image_id": "9f43e9fb-1c1a-4699-a440-7dcc29d6c694",
        "anomaly_type": "Hotspot",
        "anomaly_type_code": "hotspot",
        "severity": "Crítico (Classe 3 - IEC)",
        "severity_code": "critical",
        "severity_color_hex": "#E74C3C",
        "max_temp_celsius": 78.5,
        "delta_t_celsius": 38.5,
        "min_temp_celsius": null,
        "avg_temp_celsius": null,
        "confidence": 0.96,
        "project_id": "98abec0c-401f-4a5f-a135-0e841d3a166d",
        "project_name": "Complexo Solar São Francisco 10MW",
        "inspection_id": "7a4e371f-33b9-47ac-a2a1-4389f43477f1",
        "inspection_title": "Voo Termográfico Drone DJI Matrice 4T - Faixa A",
        "captured_at": "2026-07-10T10:15:00",
        "crop_path": null,
        "notes": "Ponto quente severo em célula central da string 4"
      }
    },
    {
      "type": "Feature",
      "id": "8e8adf59-f864-449b-96d5-01079517d8fa",
      "geometry": {
        "type": "Point",
        "coordinates": [
          -40.498765,
          -9.412345,
          357.0
        ]
      },
      "properties": {
        "anomaly_id": "8e8adf59-f864-449b-96d5-01079517d8fa",
        "image_id": "9f43e9fb-1c1a-4699-a440-7dcc29d6c694",
        "anomaly_type": "Módulo Desconectado",
        "anomaly_type_code": "disconnected_module",
        "severity": "Médio (Classe 2 - IEC)",
        "severity_code": "medium",
        "severity_color_hex": "#E67E22",
        "max_temp_celsius": 52.0,
        "delta_t_celsius": 12.0,
        "min_temp_celsius": null,
        "avg_temp_celsius": null,
        "confidence": 0.92,
        "project_id": "98abec0c-401f-4a5f-a135-0e841d3a166d",
        "project_name": "Complexo Solar São Francisco 10MW",
        "inspection_id": "7a4e371f-33b9-47ac-a2a1-4389f43477f1",
        "inspection_title": "Voo Termográfico Drone DJI Matrice 4T - Faixa A",
        "captured_at": "2026-07-10T10:15:00",
        "crop_path": null,
        "notes": "Módulo inteiro com aquecimento uniforme"
      }
    }
  ]
}