{
  "type": "FeatureCollection",
  "name": "Inspeção: Inspeção Automatizada Completa - E2E - Complexo Solar São Francisco",
  "crs": {
    "type": "name",
    "properties": {
      "name": "urn:ogc:def:crs:OGC:1.3:CRS84"
    }
  },
  "metadata": {
    "generator": "SolarGuard Vision - Solar Thermal Vision & AI",
    "spec": "RFC 7946",
    "generated_at": "2026-09-10T18:06:32.126949",
    "total_features": 3,
    "severity_summary": {
      "critical": 0,
      "medium": 3,
      "low": 0,
      "informational": 0
    }
  },
  "features": [
    {
      "type": "Feature",
      "id": "71c18568-34ce-44b5-bedb-48606fdba95c",
      "geometry": {
        "type": "Point",
        "coordinates": [
          -40.502718393561274,
          -9.389078757170916,
          0.0
        ]
      },
      "properties": {
        "anomaly_id": "71c18568-34ce-44b5-bedb-48606fdba95c",
        "image_id": "e0f8f791-b367-46ce-b59b-187d2a48c512",
        "anomaly_type": "Hotspot",
        "anomaly_type_code": "hotspot",
        "severity": "Médio (Classe 2 - IEC)",
        "severity_code": "medium",
        "severity_color_hex": "#E67E22",
        "max_temp_celsius": 61.0,
        "delta_t_celsius": 20.0,
        "min_temp_celsius": 26.0,
        "avg_temp_celsius": 41.0,
        "confidence": 0.92,
        "project_id": "9abc8f9c-7892-43a7-9730-1fbc8d94198f",
        "project_name": "Complexo Solar São Francisco",
        "inspection_id": "e7d038d9-b53b-4171-970c-479c77786939",
        "inspection_title": "Inspeção Automatizada Completa - E2E",
        "captured_at": null,
        "crop_path": null,
        "notes": null
      }
    },
    {
      "type": "Feature",
      "id": "e36ecc1c-d611-4637-904d-18cf4e7c8d6b",
      "geometry": {
        "type": "Point",
        "coordinates": [
          -40.502718393561274,
          -9.389078757170916,
          0.0
        ]
      },
      "properties": {
        "anomaly_id": "e36ecc1c-d611-4637-904d-18cf4e7c8d6b",
        "image_id": "0345652b-4ea9-45be-abe7-c1e632151dbf",
        "anomaly_type": "Hotspot",
        "anomaly_type_code": "hotspot",
        "severity": "Médio (Classe 2 - IEC)",
        "severity_code": "medium",
        "severity_color_hex": "#E67E22",
        "max_temp_celsius": 61.0,
        "delta_t_celsius": 20.0,
        "min_temp_celsius": 26.0,
        "avg_temp_celsius": 41.0,
        "confidence": 0.92,
        "project_id": "9abc8f9c-7892-43a7-9730-1fbc8d94198f",
        "project_name": "Complexo Solar São Francisco",
        "inspection_id": "e7d038d9-b53b-4171-970c-479c77786939",
        "inspection_title": "Inspeção Automatizada Completa - E2E",
        "captured_at": null,
        "crop_path": null,
        "notes": null
      }
    },
    {
      "type": "Feature",
      "id": "a4e2f730-9cf2-4b08-ac87-fe59b9cb4432",
      "geometry": {
        "type": "Point",
        "coordinates": [
          -40.502718393561274,
          -9.389078757170916,
          0.0
        ]
      },
      "properties": {
        "anomaly_id": "a4e2f730-9cf2-4b08-ac87-fe59b9cb4432",
        "image_id": "d6c9a811-8be4-4ea3-be4f-0ee7528331b4",
        "anomaly_type": "Hotspot",
        "anomaly_type_code": "hotspot",
        "severity": "Médio (Classe 2 - IEC)",
        "severity_code": "medium",
        "severity_color_hex": "#E67E22",
        "max_temp_celsius": 61.0,
        "delta_t_celsius": 20.0,
        "min_temp_celsius": 26.0,
        "avg_temp_celsius": 41.0,
        "confidence": 0.92,
        "project_id": "9abc8f9c-7892-43a7-9730-1fbc8d94198f",
        "project_name": "Complexo Solar São Francisco",
        "inspection_id": "e7d038d9-b53b-4171-970c-479c77786939",
        "inspection_title": "Inspeção Automatizada Completa - E2E",
        "captured_at": null,
        "crop_path": null,
        "notes": null
      }
    }
  ]
}