{
  "type": "FeatureCollection",
  "name": "Inspeção: Inspeção Automatizada Completa - E2E - Complexo Solar São Francisco",
  "crs": {
    "type": "name",
    "properties": {
      "name": "urn:ogc:def:crs:OGC:1.3:CRS84"
    }
  },
  "metadata": {
    "generator": "SolarGuard Vision - Solar Thermal Vision & AI",
    "spec": "RFC 7946",
    "generated_at": "2026-09-11T17:12:46.460210",
    "total_features": 3,
    "severity_summary": {
      "critical": 0,
      "medium": 3,
      "low": 0,
      "informational": 0
    }
  },
  "features": [
    {
      "type": "Feature",
      "id": "bb47843b-8df4-4809-9687-fa5805fab6ab",
      "geometry": {
        "type": "Point",
        "coordinates": [
          -40.502718393561274,
          -9.389078757170916,
          0.0
        ]
      },
      "properties": {
        "anomaly_id": "bb47843b-8df4-4809-9687-fa5805fab6ab",
        "image_id": "81d02503-b2a4-4420-b138-3356aee74057",
        "anomaly_type": "Hotspot",
        "anomaly_type_code": "hotspot",
        "severity": "Médio (Classe 2 - IEC)",
        "severity_code": "medium",
        "severity_color_hex": "#E67E22",
        "max_temp_celsius": 61.0,
        "delta_t_celsius": 20.0,
        "min_temp_celsius": 26.0,
        "avg_temp_celsius": 41.0,
        "confidence": 0.92,
        "project_id": "f57346ac-0708-4129-9dbb-f32e4f82261c",
        "project_name": "Complexo Solar São Francisco",
        "inspection_id": "85285cf2-ed03-406e-962a-5a80dcfe3b6c",
        "inspection_title": "Inspeção Automatizada Completa - E2E",
        "captured_at": null,
        "crop_path": null,
        "notes": null
      }
    },
    {
      "type": "Feature",
      "id": "1aca5a2d-18bf-45db-ac5a-b5e69db68dfe",
      "geometry": {
        "type": "Point",
        "coordinates": [
          -40.502718393561274,
          -9.389078757170916,
          0.0
        ]
      },
      "properties": {
        "anomaly_id": "1aca5a2d-18bf-45db-ac5a-b5e69db68dfe",
        "image_id": "427c9f3f-249f-43c9-af2d-a2e58f9db660",
        "anomaly_type": "Hotspot",
        "anomaly_type_code": "hotspot",
        "severity": "Médio (Classe 2 - IEC)",
        "severity_code": "medium",
        "severity_color_hex": "#E67E22",
        "max_temp_celsius": 61.0,
        "delta_t_celsius": 20.0,
        "min_temp_celsius": 26.0,
        "avg_temp_celsius": 41.0,
        "confidence": 0.92,
        "project_id": "f57346ac-0708-4129-9dbb-f32e4f82261c",
        "project_name": "Complexo Solar São Francisco",
        "inspection_id": "85285cf2-ed03-406e-962a-5a80dcfe3b6c",
        "inspection_title": "Inspeção Automatizada Completa - E2E",
        "captured_at": null,
        "crop_path": null,
        "notes": null
      }
    },
    {
      "type": "Feature",
      "id": "65fcaed1-6bb4-43da-9cf6-a0d7124353d9",
      "geometry": {
        "type": "Point",
        "coordinates": [
          -40.502718393561274,
          -9.389078757170916,
          0.0
        ]
      },
      "properties": {
        "anomaly_id": "65fcaed1-6bb4-43da-9cf6-a0d7124353d9",
        "image_id": "60f02e2d-94bb-4819-b921-e3436ee8752c",
        "anomaly_type": "Hotspot",
        "anomaly_type_code": "hotspot",
        "severity": "Médio (Classe 2 - IEC)",
        "severity_code": "medium",
        "severity_color_hex": "#E67E22",
        "max_temp_celsius": 61.0,
        "delta_t_celsius": 20.0,
        "min_temp_celsius": 26.0,
        "avg_temp_celsius": 41.0,
        "confidence": 0.92,
        "project_id": "f57346ac-0708-4129-9dbb-f32e4f82261c",
        "project_name": "Complexo Solar São Francisco",
        "inspection_id": "85285cf2-ed03-406e-962a-5a80dcfe3b6c",
        "inspection_title": "Inspeção Automatizada Completa - E2E",
        "captured_at": null,
        "crop_path": null,
        "notes": null
      }
    }
  ]
}