{
  "type": "FeatureCollection",
  "name": "Usina: Complexo Solar São Francisco 10MW - Mapa Consolidado",
  "crs": {
    "type": "name",
    "properties": {
      "name": "urn:ogc:def:crs:OGC:1.3:CRS84"
    }
  },
  "metadata": {
    "generator": "SolarGuard Vision - Solar Thermal Vision & AI",
    "spec": "RFC 7946",
    "generated_at": "2026-09-10T16:45:33.877043",
    "total_features": 2,
    "severity_summary": {
      "critical": 1,
      "medium": 1,
      "low": 0,
      "informational": 0
    }
  },
  "features": [
    {
      "type": "Feature",
      "id": "992dc734-a48b-400f-ba77-9983ce56fd03",
      "geometry": {
        "type": "Point",
        "coordinates": [
          -40.498714726348965,
          -9.412338518606555,
          357.0
        ]
      },
      "properties": {
        "anomaly_id": "992dc734-a48b-400f-ba77-9983ce56fd03",
        "image_id": "93db83fc-a50f-46cb-b277-d156d42fabb1",
        "anomaly_type": "Hotspot",
        "anomaly_type_code": "hotspot",
        "severity": "Crítico (Classe 3 - IEC)",
        "severity_code": "critical",
        "severity_color_hex": "#E74C3C",
        "max_temp_celsius": 78.5,
        "delta_t_celsius": 38.5,
        "min_temp_celsius": null,
        "avg_temp_celsius": null,
        "confidence": 0.96,
        "project_id": "f7050c0a-78b7-4672-bc41-631c7d64a85a",
        "project_name": "Complexo Solar São Francisco 10MW",
        "inspection_id": "471b130b-f776-46fa-9e5f-8c08e2347947",
        "inspection_title": "Voo Termográfico Drone DJI Matrice 4T - Faixa A",
        "captured_at": "2026-07-10T10:15:00",
        "crop_path": null,
        "notes": "Ponto quente severo em célula central da string 4"
      }
    },
    {
      "type": "Feature",
      "id": "fad4e45a-a934-4bae-8d20-5d4e2e3e1f3c",
      "geometry": {
        "type": "Point",
        "coordinates": [
          -40.498765,
          -9.412345,
          357.0
        ]
      },
      "properties": {
        "anomaly_id": "fad4e45a-a934-4bae-8d20-5d4e2e3e1f3c",
        "image_id": "93db83fc-a50f-46cb-b277-d156d42fabb1",
        "anomaly_type": "Módulo Desconectado",
        "anomaly_type_code": "disconnected_module",
        "severity": "Médio (Classe 2 - IEC)",
        "severity_code": "medium",
        "severity_color_hex": "#E67E22",
        "max_temp_celsius": 52.0,
        "delta_t_celsius": 12.0,
        "min_temp_celsius": null,
        "avg_temp_celsius": null,
        "confidence": 0.92,
        "project_id": "f7050c0a-78b7-4672-bc41-631c7d64a85a",
        "project_name": "Complexo Solar São Francisco 10MW",
        "inspection_id": "471b130b-f776-46fa-9e5f-8c08e2347947",
        "inspection_title": "Voo Termográfico Drone DJI Matrice 4T - Faixa A",
        "captured_at": "2026-07-10T10:15:00",
        "crop_path": null,
        "notes": "Módulo inteiro com aquecimento uniforme"
      }
    }
  ]
}