{
  "type": "FeatureCollection",
  "name": "Usina: Complexo Solar São Francisco 10MW - Mapa Consolidado",
  "crs": {
    "type": "name",
    "properties": {
      "name": "urn:ogc:def:crs:OGC:1.3:CRS84"
    }
  },
  "metadata": {
    "generator": "SolarGuard Vision - Solar Thermal Vision & AI",
    "spec": "RFC 7946",
    "generated_at": "2026-09-10T18:06:21.026280",
    "total_features": 2,
    "severity_summary": {
      "critical": 1,
      "medium": 1,
      "low": 0,
      "informational": 0
    }
  },
  "features": [
    {
      "type": "Feature",
      "id": "37d0d11d-a487-479d-9142-e3c0e1e50035",
      "geometry": {
        "type": "Point",
        "coordinates": [
          -40.498714726348965,
          -9.412338518606555,
          357.0
        ]
      },
      "properties": {
        "anomaly_id": "37d0d11d-a487-479d-9142-e3c0e1e50035",
        "image_id": "58e1176e-fc1e-47ed-aa15-573ed29d58d1",
        "anomaly_type": "Hotspot",
        "anomaly_type_code": "hotspot",
        "severity": "Crítico (Classe 3 - IEC)",
        "severity_code": "critical",
        "severity_color_hex": "#E74C3C",
        "max_temp_celsius": 78.5,
        "delta_t_celsius": 38.5,
        "min_temp_celsius": null,
        "avg_temp_celsius": null,
        "confidence": 0.96,
        "project_id": "b9729d8d-cdc0-4134-88fa-c6c11c01de16",
        "project_name": "Complexo Solar São Francisco 10MW",
        "inspection_id": "0665ccdd-e932-4bd8-a9e7-14957edefa4a",
        "inspection_title": "Voo Termográfico Drone DJI Matrice 4T - Faixa A",
        "captured_at": "2026-07-10T10:15:00",
        "crop_path": null,
        "notes": "Ponto quente severo em célula central da string 4"
      }
    },
    {
      "type": "Feature",
      "id": "9f5fad15-d853-4652-b583-3397d2abd2fd",
      "geometry": {
        "type": "Point",
        "coordinates": [
          -40.498765,
          -9.412345,
          357.0
        ]
      },
      "properties": {
        "anomaly_id": "9f5fad15-d853-4652-b583-3397d2abd2fd",
        "image_id": "58e1176e-fc1e-47ed-aa15-573ed29d58d1",
        "anomaly_type": "Módulo Desconectado",
        "anomaly_type_code": "disconnected_module",
        "severity": "Médio (Classe 2 - IEC)",
        "severity_code": "medium",
        "severity_color_hex": "#E67E22",
        "max_temp_celsius": 52.0,
        "delta_t_celsius": 12.0,
        "min_temp_celsius": null,
        "avg_temp_celsius": null,
        "confidence": 0.92,
        "project_id": "b9729d8d-cdc0-4134-88fa-c6c11c01de16",
        "project_name": "Complexo Solar São Francisco 10MW",
        "inspection_id": "0665ccdd-e932-4bd8-a9e7-14957edefa4a",
        "inspection_title": "Voo Termográfico Drone DJI Matrice 4T - Faixa A",
        "captured_at": "2026-07-10T10:15:00",
        "crop_path": null,
        "notes": "Módulo inteiro com aquecimento uniforme"
      }
    }
  ]
}