{
  "type": "FeatureCollection",
  "name": "Usina: Complexo Solar São Francisco 10MW - Mapa Consolidado",
  "crs": {
    "type": "name",
    "properties": {
      "name": "urn:ogc:def:crs:OGC:1.3:CRS84"
    }
  },
  "metadata": {
    "generator": "SolarGuard Vision - Solar Thermal Vision & AI",
    "spec": "RFC 7946",
    "generated_at": "2026-09-11T17:12:39.179592",
    "total_features": 2,
    "severity_summary": {
      "critical": 1,
      "medium": 1,
      "low": 0,
      "informational": 0
    }
  },
  "features": [
    {
      "type": "Feature",
      "id": "a1614e75-baec-4933-a73d-a80e209efe24",
      "geometry": {
        "type": "Point",
        "coordinates": [
          -40.498714726348965,
          -9.412338518606555,
          357.0
        ]
      },
      "properties": {
        "anomaly_id": "a1614e75-baec-4933-a73d-a80e209efe24",
        "image_id": "d7e0ed4e-420b-455b-9095-1d1759efc576",
        "anomaly_type": "Hotspot",
        "anomaly_type_code": "hotspot",
        "severity": "Crítico (Classe 3 - IEC)",
        "severity_code": "critical",
        "severity_color_hex": "#E74C3C",
        "max_temp_celsius": 78.5,
        "delta_t_celsius": 38.5,
        "min_temp_celsius": null,
        "avg_temp_celsius": null,
        "confidence": 0.96,
        "project_id": "fac1acc6-88a9-43c3-96af-a89fde4235f6",
        "project_name": "Complexo Solar São Francisco 10MW",
        "inspection_id": "5c7969d1-ef2b-40f6-95e6-116d891c22b3",
        "inspection_title": "Voo Termográfico Drone DJI Matrice 4T - Faixa A",
        "captured_at": "2026-07-10T10:15:00",
        "crop_path": null,
        "notes": "Ponto quente severo em célula central da string 4"
      }
    },
    {
      "type": "Feature",
      "id": "1b86c315-24b3-47d6-a50a-8e6111567b88",
      "geometry": {
        "type": "Point",
        "coordinates": [
          -40.498765,
          -9.412345,
          357.0
        ]
      },
      "properties": {
        "anomaly_id": "1b86c315-24b3-47d6-a50a-8e6111567b88",
        "image_id": "d7e0ed4e-420b-455b-9095-1d1759efc576",
        "anomaly_type": "Módulo Desconectado",
        "anomaly_type_code": "disconnected_module",
        "severity": "Médio (Classe 2 - IEC)",
        "severity_code": "medium",
        "severity_color_hex": "#E67E22",
        "max_temp_celsius": 52.0,
        "delta_t_celsius": 12.0,
        "min_temp_celsius": null,
        "avg_temp_celsius": null,
        "confidence": 0.92,
        "project_id": "fac1acc6-88a9-43c3-96af-a89fde4235f6",
        "project_name": "Complexo Solar São Francisco 10MW",
        "inspection_id": "5c7969d1-ef2b-40f6-95e6-116d891c22b3",
        "inspection_title": "Voo Termográfico Drone DJI Matrice 4T - Faixa A",
        "captured_at": "2026-07-10T10:15:00",
        "crop_path": null,
        "notes": "Módulo inteiro com aquecimento uniforme"
      }
    }
  ]
}