{
  "type": "FeatureCollection",
  "name": "Usina: Complexo Solar São Francisco 10MW - Mapa Consolidado",
  "crs": {
    "type": "name",
    "properties": {
      "name": "urn:ogc:def:crs:OGC:1.3:CRS84"
    }
  },
  "metadata": {
    "generator": "SolarGuard Vision - Solar Thermal Vision & AI",
    "spec": "RFC 7946",
    "generated_at": "2026-09-10T16:25:39.472112",
    "total_features": 2,
    "severity_summary": {
      "critical": 1,
      "medium": 1,
      "low": 0,
      "informational": 0
    }
  },
  "features": [
    {
      "type": "Feature",
      "id": "67fac4e0-9dcf-4b4e-b2e9-4cc1449c08c3",
      "geometry": {
        "type": "Point",
        "coordinates": [
          -40.498714726348965,
          -9.412338518606555,
          357.0
        ]
      },
      "properties": {
        "anomaly_id": "67fac4e0-9dcf-4b4e-b2e9-4cc1449c08c3",
        "image_id": "6fb57d0d-5b4a-479d-a15b-ae7ae9674faa",
        "anomaly_type": "Hotspot",
        "anomaly_type_code": "hotspot",
        "severity": "Crítico (Classe 3 - IEC)",
        "severity_code": "critical",
        "severity_color_hex": "#E74C3C",
        "max_temp_celsius": 78.5,
        "delta_t_celsius": 38.5,
        "min_temp_celsius": null,
        "avg_temp_celsius": null,
        "confidence": 0.96,
        "project_id": "2623bcfb-62ff-4dd1-a47e-97f662bd334a",
        "project_name": "Complexo Solar São Francisco 10MW",
        "inspection_id": "a1927dd2-bb82-469f-ae93-998c67bebec3",
        "inspection_title": "Voo Termográfico Drone DJI Matrice 4T - Faixa A",
        "captured_at": "2026-07-10T10:15:00",
        "crop_path": null,
        "notes": "Ponto quente severo em célula central da string 4"
      }
    },
    {
      "type": "Feature",
      "id": "330ae78f-979e-4308-8ce5-b5215cfa03ff",
      "geometry": {
        "type": "Point",
        "coordinates": [
          -40.498765,
          -9.412345,
          357.0
        ]
      },
      "properties": {
        "anomaly_id": "330ae78f-979e-4308-8ce5-b5215cfa03ff",
        "image_id": "6fb57d0d-5b4a-479d-a15b-ae7ae9674faa",
        "anomaly_type": "Módulo Desconectado",
        "anomaly_type_code": "disconnected_module",
        "severity": "Médio (Classe 2 - IEC)",
        "severity_code": "medium",
        "severity_color_hex": "#E67E22",
        "max_temp_celsius": 52.0,
        "delta_t_celsius": 12.0,
        "min_temp_celsius": null,
        "avg_temp_celsius": null,
        "confidence": 0.92,
        "project_id": "2623bcfb-62ff-4dd1-a47e-97f662bd334a",
        "project_name": "Complexo Solar São Francisco 10MW",
        "inspection_id": "a1927dd2-bb82-469f-ae93-998c67bebec3",
        "inspection_title": "Voo Termográfico Drone DJI Matrice 4T - Faixa A",
        "captured_at": "2026-07-10T10:15:00",
        "crop_path": null,
        "notes": "Módulo inteiro com aquecimento uniforme"
      }
    }
  ]
}